[Satellite]
VERSION=1.1
NAME=GLOBALSTAR M069
NICKNAME=GLOBALSTAR M069
TLE1=1 31573U 07020C   17186.17327594 -.00000090  00000-0  76125-4 0  9994
TLE2=2 31573  51.9965  23.8036 0000498  42.3974  80.9070 12.62265468467821
